STARLINK-35641          
1 66167U 25240X   25319.83335647 -.00461921  00000+0 -87285-2 0  9994
2 66167  53.1602 233.0707 0001034 151.7549 311.0902 15.49533645  4574
STARLINK-35578          
1 66168U 25240Y   25319.83335647 -.00461077  00000+0 -87138-2 0  9994
2 66168  53.1602 233.0550 0000965 151.9157 318.5983 15.49526867  4579
STARLINK-35638          
1 66169U 25240Z   25319.83335647 -.00420865  00000+0 -79038-2 0  9995
2 66169  53.1603 233.0623 0000754 121.1426 345.5296 15.49560016  4577
STARLINK-35585          
1 66170U 25240AA  25319.83335647 -.00405429  00000+0 -76020-2 0  9994
2 66170  53.1604 233.0509 0000644 113.4671 358.9554 15.49548280  4571
STARLINK-35606          
1 66171U 25240AB  25319.83335647 -.00455657  00000+0 -86072-2 0  9991
2 66171  53.1603 233.0468 0000941 153.0010 321.3488 15.49521107  4571
STARLINK-35627          
1 66172U 25240AC  25319.83335647 -.00464070  00000+0 -87729-2 0  9991
2 66172  53.1601 233.0587 0000991 153.7550 314.8416 15.49529500  4576
STARLINK-35634          
1 66173U 25240AD  25319.83335647 -.00457641  00000+0 -86462-2 0  9991
2 66173  53.1601 233.0429 0000927 154.9343 321.3317 15.49523228  4578
HTV-X1                  
1 66174U 25241A   25318.22475630  .00013472  00000+0  24659-3 0  9991
2 66174  51.6329 283.6283 0004194  68.4296 291.7139 15.49650045  1458
GAOFEN-14 02            
1 66175U 25242A   25318.46556247  .00014152  00000+0  52318-3 0  9992
2 66175  97.4386  30.6022 0011017 193.9078 166.1859 15.27766001  2951
CZ-3B R/B               
1 66176U 25242B   25309.65934494  .00029904  00000+0  58815-3 0  9997
2 66176  97.4571  21.8726 0103778   5.1082 355.1197 15.41457457  1622
STARLINK-35352          
1 66177U 25243A   25319.83335647 -.01946514  00000+0 -19486-1 0  9992
2 66177  53.1596  55.7248 0001207  66.9956 129.9720 15.68006731  4269
STARLINK-35363          
1 66178U 25243B   25319.83335647 -.01946771  00000+0 -19489-1 0  9991
2 66178  53.1595  55.7321 0001225  67.6319 125.5022 15.68006833  4329
